,name,address,locality,phone_number
0,Farnsworth Ricks Management & Realty,6001 E University Dr,"Mesa, AZ 85205",(855) 592-7487
1,Property Management Inc. Greater Phoenix,3514 N Power Rd Ste 104,"Mesa, AZ 85215",(480) 641-9163
2,East Valley Property Management,1855 E Southern Ave Ste 112,"Mesa, AZ 85204",(480) 926-9001
3,On Q Property Management,4555 E Inverness Ave Ste 101,"Mesa, AZ 85206",(480) 518-9910
4,VHM Property Management and Realty,6640 E Baseline Rd,"Mesa, AZ 85206",(480) 659-8814
5,TransCity Property Management Inc,2812 N Norwalk Ste 116,"Mesa, AZ 85215",(480) 641-8830
6,Sundial Real Estate,263 W 3rd Pl,"Mesa, AZ 85201",(480) 966-2170
7,Cluff Property Management,119 S Stapley Dr,"Mesa, AZ 85204",(480) 252-4576
8,Red Brick Property Management,6239 E Brown Rd,"Mesa, AZ 85205",(480) 282-1234
9,Caballero Property Management,1331 E Sorenson St,"Mesa, AZ 85203",(480) 813-1900
10,Snow Property Services,4135 S Power Rd Ste 122,"Mesa, AZ 85212",(480) 635-1133
11,Bennett Property Management,101 E 1st Ave Ste 105,"Mesa, AZ 85210",(480) 969-1818
12,Tradelands Realty,567 E University Dr,"Mesa, AZ 85203",(480) 610-6835
13,Az One Realty,407 N Williams Apt 8,"Mesa, AZ 85203",(480) 839-4656
14,Whispering Meadows,1050 S Longmore,"Mesa, AZ 85202",(480) 615-3167
15,American Associates Property,653 W Guadalupe Rd,"Mesa, AZ 85210",(480) 889-5161
16,Prime Time Properties,7227 E Baseline Rd,"Mesa, AZ 85209",(480) 833-7228
17,A Better Realty,44 S 83rd Pl,"Mesa, AZ 85208",(480) 655-0904
18,Coldwell Banker Trails and Paths,2913 N Power Rd Ste 101,"Mesa, AZ 85215",(480) 355-4700
19,REB Limited,123 N Centennial Way Ste 112,"Mesa, AZ 85201",(480) 827-9591
20,AZ Residential Management,1555 E University Dr,"Mesa, AZ 85203",(480) 444-2574
21,Red Hawk Realty & Property,1555 S Gilbert Rd Ste 108,"Mesa, AZ 85204",(480) 396-9766
22,Station 21,2121 W Main St,"Mesa, AZ 85201",(480) 361-0798
23,Ah Properties,1660 S Alma School Rd,"Mesa, AZ 85210",(480) 969-4787
24,Michael A Pollack Real Estate,1136 W Baseline Rd,"Mesa, AZ 85210",(480) 888-0888
25,San Posada,2318 S Country Club Dr,"Mesa, AZ 85210",(602) 780-1261
26,La Costa At Dobson Ranch,1820 W Lindner Ave,"Mesa, AZ 85202",(480) 897-1140
27,Brewer & Stratton Property Management,3635 E Inverness Ave Ste 101,"Mesa, AZ 85206",(480) 219-2111
28,S J Fowler Real Estate Inc,6360 E Brown Rd Ste 103,"Mesa, AZ 85205",(480) 649-3536
29,Brokeractive Corp,6513 E Sierra Morena St,"Mesa, AZ 85215",(480) 551-6451
30,Element Cottage,7410 E Lompoc Ave,"Mesa, AZ 85209",(480) 219-0099
31,Springs Realty Inc,2233 S Springwood Blvd,"Mesa, AZ 85209",(480) 984-4999
32,Cluff Property Management,733 E University Dr,"Mesa, AZ 85203",(480) 252-4576
33,Aztec Property Management,123 N Centennial Way,"Mesa, AZ 85201",(480) 248-6025
34,Pacific Property Assets,151 E 1st St Ofc,"Mesa, AZ 85201",(480) 634-6079
35,Prime Time Propertys,756 E University Dr,"Mesa, AZ 85203",(480) 833-7228
36,Page Commercial Realty Svc,86 W University Dr Ste 108,"Mesa, AZ 85201",(480) 964-2244
37,"Frame, Laurie A, AGT",101 E 1st Ave,"Mesa, AZ 85210",(480) 969-1818
38,Look Inside Realty,63 W Main St # 201,"Mesa, AZ 85201",(480) 518-4282
39,Infoclosure,63 W Main St,"Mesa, AZ 85201",(480) 686-9945
40,Bel Aire Manor Apartments,221 E 2nd Ave,"Mesa, AZ 85210",(480) 659-4437
41,Cornerstone Property,123 N Robson,"Mesa, AZ 85201",(480) 969-0716
42,Royalty Real Estate Services,251 N Morris,"Mesa, AZ 85201",(480) 777-2003
43,Aaaa We Buy Unwanted Houses,456 N Country Club Dr,"Mesa, AZ 85201",(602) 799-6366
44,Ennabe Properties,820 E Brown Rd,"Mesa, AZ 85203",(480) 833-0082
45,Inland Southwest Management,925 N Stapley Dr,"Mesa, AZ 85203",(480) 898-4089
46,Property Solutions Today,461 W 9th St,"Mesa, AZ 85201",(602) 810-0222
47,Exclusive Property Management,1418 N Ashland,"Mesa, AZ 85203",(480) 603-7797
48,Leassa Property Management,702 W University Dr,"Mesa, AZ 85201",(480) 676-3400
49,Ennabe Properties,655 S Mesa Dr,"Mesa, AZ 85210",(480) 827-2500
50,Az Asset Recovery,458A S Lebaron,"Mesa, AZ 85210",(480) 889-5586
51,Dana Realty & Management,1550 E University Dr # Q,"Mesa, AZ 85203",(480) 264-0717
52,The Richard L Wood Company,1550 E University Dr Ste K,"Mesa, AZ 85203",(480) 964-1745
53,Valley Income Properties,1550 E University Dr # 0-1,"Mesa, AZ 85203",(480) 247-9941
54,Cluff Property Management,1551 E University Dr,"Mesa, AZ 85203",(480) 252-4576
55,Denman Realty Group,1555 E University Dr,"Mesa, AZ 85203",(480) 834-1525
56,Action Property Management,1555 E University Dr,"Mesa, AZ 85203",(480) 590-4615
57,Twin Brothers Properties,760 W Main St,"Mesa, AZ 85201",(480) 615-5351
58,Hometrend Property Management & Real Estate,1420 E Broadway Rd,"Mesa, AZ 85204",(480) 832-6757
59,Artistic Land Management,238 E 10th Dr,"Mesa, AZ 85210",(480) 733-3894
60,NTH Property Management,449 N Alma School Rd,"Mesa, AZ 85201",(480) 649-3531
61,Cornerstone Property Services,1800 E Covina St Ofc,"Mesa, AZ 85203",(480) 834-4433
62,Aspen Square Management Inc,604 W 8th Ave,"Mesa, AZ 85210",(413) 781-0712
63,Great Homes Realty,2135 E University Dr Ste 112,"Mesa, AZ 85213",(480) 482-7300
64,Mi Casa Property Management,2135 E University Dr Ste 119,"Mesa, AZ 85213",(480) 969-4180
65,Banyon Properties,840 E McKellips Rd Ste 111,"Mesa, AZ 85203",(480) 553-7641
66,Prima Commercial Services,2321 E University Dr Ste 103,"Mesa, AZ 85213",(480) 951-8989
67,Johnson Cattle Co,1132 W Mclellan Rd,"Mesa, AZ 85201",(480) 834-1042
68,TAM Associates,1011 S Toltec,"Mesa, AZ 85204",(480) 497-4812
69,Hometrend Property Management & Real Estate,1819 E Southern Ave,"Mesa, AZ 85204",(480) 832-6757
70,S-G Management Inc,1855 E Southern Ave Ste 106,"Mesa, AZ 85204",(480) 892-2011
71,Nemesis Group Risk Management,1855 E Southern Ave,"Mesa, AZ 85204",(480) 745-2530
72,Annette Rehder,1855 E Southern Ave Ste 112,"Mesa, AZ 85204",(480) 720-6740
73,Arrow Property Management,1107 S Gilbert Rd,"Mesa, AZ 85204",(480) 625-3347
74,Cornerstone Property Services,1616 S Stapley Dr Ste 105,"Mesa, AZ 85204",(480) 282-5800
75,Prudential Arizona Properties,1630 S Stapley Dr Ste 100,"Mesa, AZ 85204",(480) 467-4900
76,BHHS Arizona Properties,1630 S Stapley Dr,"Mesa, AZ 85204",(480) 467-4900
77,Stapley Office Inc,1640 S Stapley Dr,"Mesa, AZ 85204",(480) 558-3787
78,Bassett Property Management,1815 W 1st Ave Ste 112,"Mesa, AZ 85202",(480) 610-1552
79,Greater Sun Valley Enterprises,1011 E Sorenson St,"Mesa, AZ 85203",(480) 844-2326
80,First Step Realty,1220 S Alma School Rd,"Mesa, AZ 85210",(480) 279-0545
81,Complete Real Estate Solutions,1201 S Alma School Rd Ste 11100,"Mesa, AZ 85210",(480) 503-8634
82,Metris,1201 S Alma School Rd,"Mesa, AZ 85210",(480) 685-3900
83,Hz Sorrento Apartment,901 N Dobson Rd,"Mesa, AZ 85201",(480) 890-8033
84,Meb Management,1033 S Longmore,"Mesa, AZ 85202",(480) 964-4444
85,"Saikou Management, Inc",1920 S Stapley Dr,"Mesa, AZ 85204",(480) 962-0900
86,Msbazv Madera,445 S Dobson Rd Ofc,"Mesa, AZ 85202",(480) 827-8465
87,Leblanc & Associates Realty,2631 E Emelita Ave,"Mesa, AZ 85204",(480) 892-8163
88,Jmt Management,2500 E Southern Ave,"Mesa, AZ 85204",(480) 699-9959
89,21 Century Arizona Montell,1101 S Sycamore,"Mesa, AZ 85202",(480) 649-8709
90,Merit Enterprises Inc,1660 S Alma School Rd,"Mesa, AZ 85210",(480) 969-4787
91,Borg Property Services,1660 S Alma School Rd,"Mesa, AZ 85210",(480) 838-6900
92,Peak Commercial Property Services,1811 S Alma School Rd,"Mesa, AZ 85210",(480) 752-2100
93,On Q Property Management,2152 S Vineyard Ste 117,"Mesa, AZ 85210",(480) 518-9910
94,PMG Services,1839 S Alma School Rd Ste 150,"Mesa, AZ 85210",(480) 829-7400
95,Sunrise Management,1921 S Alma School Rd Ste 214,"Mesa, AZ 85210",(480) 634-6861
96,Bliven Property Management,2515 W Broadway Rd,"Mesa, AZ 85202",(480) 423-3430
97,Lillibridge Healthcare Services,1450 S Dobson Rd,"Mesa, AZ 85202",(480) 668-7440
98,Moore T R and Associates,2061 S Rogers,"Mesa, AZ 85202",(480) 413-9458
99,Gc Waterstone,1651 S Dobson Rd Ofc,"Mesa, AZ 85202",(480) 831-6200
100,Realty East,2602 S Vineyard,"Mesa, AZ 85210",(480) 926-2533
101,Pmg Services,2345 S Alma School Rd Ste 210,"Mesa, AZ 85210",(480) 829-7400
102,Chartwest Realty,1819 S Dobson Rd Ste 107,"Mesa, AZ 85202",(480) 820-0600
103,Mynd Property Management,1955 S Val Dr,"Mesa, AZ 85204",(602) 549-9764
104,Tri-City Property Management Service Inc,3048 E Baseline Rd,"Mesa, AZ 85204",(480) 306-8512
105,World Class Properties,2222 S Dobson Rd Ste 204,"Mesa, AZ 85202",(602) 695-1679
106,Imt Residential,2222 S Dobson Rd,"Mesa, AZ 85202",(480) 590-3850
107,Rentvest,1955 S Val Vista Dr,"Mesa, AZ 85204",(602) 993-2504
108,Kor Arizona Properties,4320 E Brown Rd,"Mesa, AZ 85205",(480) 568-8680
109,Arnett Properties,4320 E Brown Rd Ste 111,"Mesa, AZ 85205",(480) 415-5233
110,Cornerstone MGT,4360 E Brown Rd,"Mesa, AZ 85205",(480) 282-5800
111,Farnsworth Heating Cooling & Plumbing,460 S Greenfield Rd Ste 5,"Mesa, AZ 85206",(480) 830-6200
112,Southwest Properties Inc,3850 E Baseline Rd Ste 123,"Mesa, AZ 85206",(480) 969-8000
113,Southwest Resource Management,2050 W Guadalupe Rd Ste 5,"Mesa, AZ 85202",(480) 491-0200
114,Clark Wayland Property Management,2023 W Guadalupe Rd Ste 11-142,"Mesa, AZ 85202",(480) 756-2820
115,Griffin & Assoc,4111 E Valley Auto Dr,"Mesa, AZ 85206",(480) 281-1842
116,Peak Property Management,2653 W Guadalupe Rd Ste 202,"Mesa, AZ 85202",(480) 752-2100
117,Page Crs,2655 W Guadalupe Rd,"Mesa, AZ 85202",(480) 964-2244
118,Vesper Properties,4840 E Jasmine St Ste 105,"Mesa, AZ 85205",(602) 601-2274
119,Desert Sand Realty,4554 E Inverness Ave Ste 134,"Mesa, AZ 85206",(480) 503-4870
120,Red Mountain Ranch Owners Association,4710 E Falcon Dr Ste 205,"Mesa, AZ 85215",(480) 981-6480
121,Golden West & Associates,4711 E Falcon Dr Ste 222,"Mesa, AZ 85215",(480) 396-4653
122,Great American Community Mgmt,4711 E Falcon Dr Ste 221,"Mesa, AZ 85215",(480) 374-5535
123,Property Watch,PO Box 40937,"Mesa, AZ 85274",(602) 926-2040
124,Mark Brower Properties,4852 E Baseline Rd,"Mesa, AZ 85206",(480) 336-2556
125,Freedom Homebuyer,4856 E Baseline Rd Ste 106,"Mesa, AZ 85206",(480) 462-2351
126,JJ & A Property Management,5412 E Alder Ave,"Mesa, AZ 85206",(480) 380-9572
127,Turn Key Management,1423 S Higley Rd,"Mesa, AZ 85206",(480) 324-0400
128,Velda Rose Gardens Countryside Estates,5555 E Aspen Ave,"Mesa, AZ 85206",(480) 985-9972
129,Era The Realty Group,6008 E Mckellips Rd Ste 1,"Mesa, AZ 85215",(480) 924-5555
130,Transcity Property Management Inc,6360 E Brown Rd Ste 101,"Mesa, AZ 85205",(480) 641-8830
131,Oasis In Mesa Apartments,420 N 64th Pl,"Mesa, AZ 85205",(480) 696-3821
132,Spectrum Association Management,6209 E Baseline Rd,"Mesa, AZ 85206",(480) 719-4524
133,Rent 2 Own Properties,6402 E Superstition Springs Blvd Ste 213,"Mesa, AZ 85206",(480) 832-0507
134,Key Real Estate Services,152 N Power Rd Ste 2,"Mesa, AZ 85205",(480) 983-1800
135,1-World Property Management & Realty,Po Box 6700,"Mesa, AZ 85216",(480) 540-9000
136,Tillett Property Management,222 S Power Rd Ste 205,"Mesa, AZ 85206",(480) 985-3772
137,American Allstar Realty,6642 E Baseline Rd Ste 101,"Mesa, AZ 85206",(602) 353-7375
138,Hearthstone Villas Hoa,320 S 70th St,"Mesa, AZ 85208",(480) 218-1416
139,KRC Property Management,7040 E Hampton Ave,"Mesa, AZ 85209",(480) 985-2774
140,Focus HOA Management,2824 N Power Rd Ste 113-122,"Mesa, AZ 85215",(602) 635-9777
141,Tabor Management,6943 E Minton St,"Mesa, AZ 85207",(480) 632-1468
142,All County Property Management,164 N 74th St,"Mesa, AZ 85207",(480) 355-5400
143,T C T Property Management,2500 S Power Rd Ste 121,"Mesa, AZ 85209",(602) 241-1741
144,Brewer-Caldwell Property Management,2500 S Power Rd Ste 218,"Mesa, AZ 85209",(480) 834-9200
145,Brisben Terra Antigua Limited Partnership,339 N 75th St Ofc,"Mesa, AZ 85207",(480) 924-8102
146,Real Estate Property Management,7557 E Capri Ave,"Mesa, AZ 85208",(480) 444-9693
147,Kb Home - Dahlia Pointe,6841 E Peralta Cir,"Mesa, AZ 85212",(480) 268-9268
148,Walling Properties,3902 N Pinnacle Hills Cir,"Mesa, AZ 85207",(480) 354-1922
149,Focus Hoa Management,4135 S Power Rd,"Mesa, AZ 85212",(602) 635-9777
